KUIPER-00104            
1 65142U 25171L   25245.52016300  .00048902  00000+0  13897-2 0  9991
2 65142  51.8771 298.6355 0003827 219.0532 141.0178 15.35680920  4622
KUIPER-00105            
1 65143U 25171M   25245.51333778  .00046616  00000+0  13020-2 0  9990
2 65143  51.8763 298.5860 0005171 194.8233 165.2603 15.36236791  4632
KUIPER-00106            
1 65144U 25171N   25245.51806374  .00045969  00000+0  12979-2 0  9990
2 65144  51.8759 298.6125 0004458 206.9183 153.1572 15.35908233  4636
KUIPER-00107            
1 65145U 25171P   25245.51882289  .00025384  00000+0  72635-3 0  9995
2 65145  51.8773 298.6256 0004616 210.8787 149.1928 15.35785870  4638
KUIPER-00108            
1 65146U 25171Q   25245.52413376  .00039102  00000+0  11282-2 0  9997
2 65146  51.8778 298.6600 0004687 233.6024 126.4530 15.35304573  4636
KUIPER-00109            
1 65147U 25171R   25245.51634988  .00048529  00000+0  13678-2 0  9995
2 65147  51.8763 298.6034 0004683 204.7389 155.3373 15.35938518  4628
KUIPER-00110            
1 65148U 25171S   25245.51749795  .00047548  00000+0  13399-2 0  9999
2 65148  51.8769 298.6160 0004465 204.6919 155.3855 15.35955294  4626
KUIPER-00111            
1 65149U 25171T   25245.52135291  .00046584  00000+0  13249-2 0  9994
2 65149  51.8773 298.6417 0003882 223.3209 136.7472 15.35677727  4629
